STARLINK-36933          
1 69196U 26114Q   26166.48103999  .00114869  00000+0  57706-3 0  9995
2 69196  53.1570 210.6921 0001051  87.8682 272.2461 15.80901197  4505
STARLINK-37419          
1 69197U 26114R   26166.47953818  .00173421  00000+0  86248-3 0  9990
2 69197  53.1569 210.6815 0001004  99.1506 260.9630 15.80927405  4507
STARLINK-37321          
1 69198U 26114S   26166.54200876  .00110302  00000+0  55448-3 0  9995
2 69198  53.1572 210.3602 0001067  58.6655 301.4472 15.80903888  4512
STARLINK-37406          
1 69199U 26114T   26166.47803868  .00101511  00000+0  51120-3 0  9993
2 69199  53.1570 210.6719 0001108  75.8798 284.2348 15.80899057  4509
STARLINK-37761          
1 69200U 26114U   26166.47728797  .00174382  00000+0  86723-3 0  9996
2 69200  53.1567 210.6654 0000934 102.5111 257.6016 15.80925071  4501
STARLINK-37754          
1 69201U 26114V   26166.47634529  .00143049  00000+0  71506-3 0  9995
2 69201  53.1567 210.6596 0001022  70.5082 289.6051 15.80912101  4501
STARLINK-37649          
1 69202U 26114W   26166.47578917  .00106878  00000+0  53864-3 0  9990
2 69202  53.1569 210.6563 0001355  66.6504 293.4661 15.80861407  4504
STARLINK-37604          
1 69203U 26114X   26166.47503825  .00139107  00000+0  69571-3 0  9990
2 69203  53.1568 210.6510 0001011  80.5959 279.5178 15.80914004  4504
STARLINK-37669          
1 69204U 26114Y   26166.47428866  .00146402  00000+0  73127-3 0  9990
2 69204  53.1569 210.6459 0001161  68.8744 291.2403 15.80917572  4500
STARLINK-37691          
1 69205U 26114Z   26166.42239530  .00108419  00000+0  61964-3 0  9996
2 69205  53.1576 211.0385 0000776 105.3825 254.7282 15.78080894  4492
STARLINK-37671          
1 69206U 26114AA  26166.50002315 -.00012338  00000+0 -67302-4 0  9994
2 69206  53.1580 210.5673 0001115  81.1533  41.7731 15.78058519  4545
STARLINK-37647          
1 69207U 26114AB  26166.47353918  .00183224  00000+0  90994-3 0  9992
2 69207  53.1569 210.6409 0000930  70.8835 289.2288 15.80928616  4504
STARLINK-37562          
1 69208U 26114AC  26166.48045950  .00160094  00000+0  90719-3 0  9993
2 69208  53.1581 210.6867 0001030  99.4816 260.6322 15.78092006  4509
STARLINK-37682          
1 69209U 26114AD  26166.47054141  .00237291  00000+0  11704-2 0  9995
2 69209  53.1567 210.6200 0001339  75.5557 284.5614 15.80921767  4501
STARLINK-37402          
1 69210U 26114AE  26166.46979009  .00236460  00000+0  11662-2 0  9995
2 69210  53.1568 210.6154 0000999  76.7806 283.3328 15.80925395  4503
STARLINK-37613          
1 69211U 26115A   26166.50002315  .00084101  00000+0  15334-2 0  9992
2 69211  97.2834 183.5971 0001200 101.0592 156.0898 15.49155074  4427
STARLINK-37713          
1 69212U 26115B   26166.50002315  .00093178  00000+0  16991-2 0  9997
2 69212  97.2848 183.7225 0001897  95.8719  96.4739 15.49115025  4423
STARLINK-37716          
1 69213U 26115C   26166.50002315 -.02265293  00000+0 -41641-1 0  9990
2 69213  97.2837 183.7815 0000978  99.2574 219.1743 15.52777734  4427
STARLINK-37620          
1 69214U 26115D   26166.53277501  .00038179  00000+0  70000-3 0  9995
2 69214  97.2834 183.5969 0000636  83.0687 277.0637 15.49199689  4406
STARLINK-37700          
1 69215U 26115E   26166.50618000  .00034796  00000+0  63788-3 0  9992
2 69215  97.2832 183.4807 0001331  92.0515 268.0889 15.49221985  4390
STARLINK-37766          
1 69216U 26115F   26166.50002315 -.02408165  00000+0 -35274-1 0  9995
2 69216  97.2848 183.8155 0001156 101.4784 305.4149 15.59113314  4422
STARLINK-37763          
1 69217U 26115G   26166.50002315 -.02388315  00000+0 -42331-1 0  9992
2 69217  97.2839 183.7702 0001723 117.0699 186.4924 15.53973689  4429
STARLINK-37724          
1 69218U 26115H   26166.50002315 -.02427676  00000+0 -32666-1 0  9997
2 69218  97.2847 183.8482 0001341  80.4208  39.9586 15.61347288  4425
STARLINK-37758          
1 69219U 26115J   26166.50002315 -.02393710  00000+0 -31742-1 0  9993
2 69219  97.2850 183.8572 0001651  86.0785  52.9055 15.61668181  4420
STARLINK-37201          
1 69220U 26115K   26166.50002315 -.02464645  00000+0 -33045-1 0  9999
2 69220  97.2846 183.8559 0001653  84.2594  49.3600 15.61492786  4424
STARLINK-37728          
1 69221U 26115L   26166.50002315 -.02403170  00000+0 -34287-1 0  9995
2 69221  97.2847 183.8514 0001356  78.7721  44.9541 15.59791212  4425
STARLINK-37760          
1 69222U 26115M   26166.50002315 -.02465069  00000+0 -31068-1 0  9995
2 69222  97.2845 183.8617 0001733  68.3787  82.9458 15.63073748  4425
STARLINK-37759          
1 69223U 26115N   26166.50002315 -.02512213  00000+0 -46854-1 0  9999
2 69223  97.2838 183.7812 0001147  75.3309 241.4600 15.52161343  4429
STARLINK-37725          
1 69224U 26115P   26166.50002315 -.01735019  00000+0 -33023-1 0  9994
2 69224  97.2836 183.7856 0000883  70.3801 259.6134 15.51445122  4426
STARLINK-37770          
1 69225U 26115Q   26166.50002315 -.02533908  00000+0 -30749-1 0  9991
2 69225  97.2842 183.8678 0001870  98.3022  76.5785 15.64132978  4423
