OBJECT_NAME,OBJECT_ID,EPOCH,MEAN_MOTION,ECCENTRICITY,INCLINATION,RA_OF_ASC_NODE,ARG_OF_PERICENTER,MEAN_ANOMALY,EPHEMERIS_TYPE,CLASSIFICATION_TYPE,NORAD_CAT_ID,ELEMENT_SET_NO,REV_AT_EPOCH,BSTAR,MEAN_MOTION_DOT,MEAN_MOTION_DDOT
STARLINK-36933,2026-114Q,2026-06-15T11:32:41.855136,15.80901197,.0001051,53.1570,210.6921,87.8682,272.2461,0,U,69196,999,450,.57706E-3,.114869E-2,0
STARLINK-37419,2026-114R,2026-06-15T11:30:32.098752,15.80927405,.0001004,53.1569,210.6815,99.1506,260.9630,0,U,69197,999,450,.86248E-3,.173421E-2,0
STARLINK-37321,2026-114S,2026-06-15T13:00:29.556864,15.80903888,.0001067,53.1572,210.3602,58.6655,301.4472,0,U,69198,999,451,.55448E-3,.110302E-2,0
STARLINK-37406,2026-114T,2026-06-15T11:28:22.541952,15.80899057,.0001108,53.1570,210.6719,75.8798,284.2348,0,U,69199,999,450,.5112E-3,.101511E-2,0
STARLINK-37761,2026-114U,2026-06-15T11:27:17.680608,15.80925071,.0000934,53.1567,210.6654,102.5111,257.6016,0,U,69200,999,450,.86723E-3,.174382E-2,0
STARLINK-37754,2026-114V,2026-06-15T11:25:56.233056,15.80912101,.0001022,53.1567,210.6596,70.5082,289.6051,0,U,69201,999,450,.71506E-3,.143049E-2,0
STARLINK-37649,2026-114W,2026-06-15T11:25:08.184288,15.80861407,.0001355,53.1569,210.6563,66.6504,293.4661,0,U,69202,999,450,.53864E-3,.106878E-2,0
STARLINK-37604,2026-114X,2026-06-15T11:24:03.304800,15.80914004,.0001011,53.1568,210.6510,80.5959,279.5178,0,U,69203,999,450,.69571E-3,.139107E-2,0
STARLINK-37669,2026-114Y,2026-06-15T11:22:58.540224,15.80917572,.0001161,53.1569,210.6459,68.8744,291.2403,0,U,69204,999,450,.73127E-3,.146402E-2,0
STARLINK-37691,2026-114Z,2026-06-15T10:08:14.953920,15.78080894,.0000776,53.1576,211.0385,105.3825,254.7282,0,U,69205,999,449,.61964E-3,.108419E-2,0
STARLINK-37671,2026-114AA,2026-06-15T12:00:02.000160,15.78058519,.0001115,53.1580,210.5673,81.1533,41.7731,0,U,69206,999,454,-.67302E-4,-.12338E-3,0
STARLINK-37647,2026-114AB,2026-06-15T11:21:53.785152,15.80928616,.000093,53.1569,210.6409,70.8835,289.2288,0,U,69207,999,450,.90994E-3,.183224E-2,0
STARLINK-37562,2026-114AC,2026-06-15T11:31:51.700800,15.78092006,.000103,53.1581,210.6867,99.4816,260.6322,0,U,69208,999,450,.90719E-3,.160094E-2,0
STARLINK-37682,2026-114AD,2026-06-15T11:17:34.777824,15.80921767,.0001339,53.1567,210.6200,75.5557,284.5614,0,U,69209,999,450,.11704E-2,.237291E-2,0
STARLINK-37402,2026-114AE,2026-06-15T11:16:29.863776,15.80925395,.0000999,53.1568,210.6154,76.7806,283.3328,0,U,69210,999,450,.11662E-2,.23646E-2,0
STARLINK-37613,2026-115A,2026-06-15T12:00:02.000160,15.49155074,.00012,97.2834,183.5971,101.0592,156.0898,0,U,69211,999,442,.15334E-2,.84101E-3,0
STARLINK-37713,2026-115B,2026-06-15T12:00:02.000160,15.49115025,.0001897,97.2848,183.7225,95.8719,96.4739,0,U,69212,999,442,.16991E-2,.93178E-3,0
STARLINK-37716,2026-115C,2026-06-15T12:00:02.000160,15.52777734,.0000978,97.2837,183.7815,99.2574,219.1743,0,U,69213,999,442,-.41641E-1,-.2265293E-1,0
STARLINK-37620,2026-115D,2026-06-15T12:47:11.760864,15.49199689,.0000636,97.2834,183.5969,83.0687,277.0637,0,U,69214,999,440,.7E-3,.38179E-3,0
STARLINK-37700,2026-115E,2026-06-15T12:08:53.952000,15.49221985,.0001331,97.2832,183.4807,92.0515,268.0889,0,U,69215,999,439,.63788E-3,.34796E-3,0
STARLINK-37766,2026-115F,2026-06-15T12:00:02.000160,15.59113314,.0001156,97.2848,183.8155,101.4784,305.4149,0,U,69216,999,442,-.35274E-1,-.2408165E-1,0
STARLINK-37763,2026-115G,2026-06-15T12:00:02.000160,15.53973689,.0001723,97.2839,183.7702,117.0699,186.4924,0,U,69217,999,442,-.42331E-1,-.2388315E-1,0
STARLINK-37724,2026-115H,2026-06-15T12:00:02.000160,15.61347288,.0001341,97.2847,183.8482,80.4208,39.9586,0,U,69218,999,442,-.32666E-1,-.2427676E-1,0
STARLINK-37758,2026-115J,2026-06-15T12:00:02.000160,15.61668181,.0001651,97.2850,183.8572,86.0785,52.9055,0,U,69219,999,442,-.31742E-1,-.239371E-1,0
STARLINK-37201,2026-115K,2026-06-15T12:00:02.000160,15.61492786,.0001653,97.2846,183.8559,84.2594,49.3600,0,U,69220,999,442,-.33045E-1,-.2464645E-1,0
STARLINK-37728,2026-115L,2026-06-15T12:00:02.000160,15.59791212,.0001356,97.2847,183.8514,78.7721,44.9541,0,U,69221,999,442,-.34287E-1,-.240317E-1,0
STARLINK-37760,2026-115M,2026-06-15T12:00:02.000160,15.63073748,.0001733,97.2845,183.8617,68.3787,82.9458,0,U,69222,999,442,-.31068E-1,-.2465069E-1,0
STARLINK-37759,2026-115N,2026-06-15T12:00:02.000160,15.52161343,.0001147,97.2838,183.7812,75.3309,241.4600,0,U,69223,999,442,-.46854E-1,-.2512213E-1,0
STARLINK-37725,2026-115P,2026-06-15T12:00:02.000160,15.51445122,.0000883,97.2836,183.7856,70.3801,259.6134,0,U,69224,999,442,-.33023E-1,-.1735019E-1,0
STARLINK-37770,2026-115Q,2026-06-15T12:00:02.000160,15.64132978,.000187,97.2842,183.8678,98.3022,76.5785,0,U,69225,999,442,-.30749E-1,-.2533908E-1,0
